NORAD_CAT_ID,OBJECT_NAME,OBJECT_TYPE,EPOCH,MEAN_MOTION,ECCENTRICITY,INCLINATION,RA_OF_ASC_NODE,ARG_OF_PERICENTER,MEAN_ANOMALY,BSTAR,MEAN_MOTION_DOT,MEAN_MOTION_DDOT,TLE_LINE0,TLE_LINE1,TLE_LINE2,SEMIMAJOR_AXIS,PERIOD,APOGEE,PERIGEE,DECAYED
53268.0,STARLINK-4109,PAYLOAD,2023-06-17 16:02:57,15.08823469,0.0001364,53.2173,345.431,92.4078,267.7071,-0.0001706,-3.001e-05,0.0,0 STARLINK-4109,1 53268U 22086AC  23168.66871777 -.00003001  00000-0 -17060-3 0  9994,2 53268  53.2173 345.4310 0001364  92.4078 267.7071 15.08823469 50709,6917.931,95.439,540.74,538.852,0.0
53268.0,STARLINK-4109,PAYLOAD,2023-06-18 04:46:02,15.08834006,8.92e-05,53.2171,343.0519,103.734,256.3752,-5.3021e-05,-1.131e-05,0.0,0 STARLINK-4109,1 53268U 22086AC  23169.19863443 -.00001131  00000-0 -53021-4 0  9994,2 53268  53.2171 343.0519 0000892 103.7340 256.3752 15.08834006 50603,6917.899,95.438,540.381,539.147,0.0
53268.0,STARLINK-4109,PAYLOAD,2023-06-18 17:29:06,15.08847022,8.09e-05,53.217,340.6734,108.3152,251.7928,0.00012791,1.749e-05,0.0,0 STARLINK-4109,1 53268U 22086AC  23169.72854982  .00001749  00000-0  12791-3 0  9992,2 53268  53.2170 340.6734 0000809 108.3152 251.7928 15.08847022 50688,6917.859,95.437,540.284,539.164,0.0
53268.0,STARLINK-4109,PAYLOAD,2023-06-19 10:58:21,15.08850893,7.75e-05,53.2168,337.4015,105.3473,254.7605,0.000562,8.67e-05,0.0,0 STARLINK-4109,1 53268U 22086AC  23170.45719226  .00008670  00000-0  56200-3 0  9998,2 53268  53.2168 337.4015 0000775 105.3473 254.7605 15.08850893 50973,6917.847,95.437,540.248,539.176,0.0
53268.0,STARLINK-4109,PAYLOAD,2023-06-19 17:19:53,15.08865413,7.1e-05,53.2165,336.2121,107.0569,253.0501,0.00070516,0.0001096,0.0,0 STARLINK-4109,1 53268U 22086AC  23170.72214621  .00010960  00000-0  70516-3 0  9998,2 53268  53.2165 336.2121 0000710 107.0569 253.0501 15.08865413 51016,6917.803,95.436,540.159,539.177,0.0
53268.0,STARLINK-4109,PAYLOAD,2023-06-20 06:02:58,15.08851795,7.84e-05,53.2159,333.8326,84.8483,275.2598,0.00013711,1.896e-05,0.0,0 STARLINK-4109,1 53268U 22086AC  23171.25206402  .00001896  00000-0  13711-3 0  9997,2 53268  53.2159 333.8326 0000784  84.8483 275.2598 15.08851795 50915,6917.844,95.437,540.252,539.167,0.0
53268.0,STARLINK-4109,PAYLOAD,2023-06-20 10:49:07,15.08834228,6.99e-05,53.2168,332.941,77.0503,283.0567,-0.00044598,-7.377e-05,0.0,0 STARLINK-4109,1 53268U 22086AC  23171.45078634 -.00007377  00000-0 -44598-3 0  9992,2 53268  53.2168 332.9410 0000699  77.0503 283.0567 15.08834228 51120,6917.898,95.438,540.247,539.279,0.0
53268.0,STARLINK-4109,PAYLOAD,2023-06-20 17:10:40,15.08841001,7.68e-05,53.2165,331.7519,69.1129,290.9945,-6.5311e-06,-3.92e-06,0.0,0 STARLINK-4109,1 53268U 22086AC  23171.71574753 -.00000392  00000-0 -65311-5 0  9992,2 53268  53.2165 331.7519 0000768  69.1129 290.9945 15.08841001 50984,6917.877,95.437,540.274,539.211,0.0
53268.0,STARLINK-4109,PAYLOAD,2023-06-20 20:21:26,15.08844642,7.1e-05,53.2167,331.157,72.9887,287.1183,0.00017745,2.538e-05,0.0,0 STARLINK-4109,1 53268U 22086AC  23171.84822688  .00002538  00000-0  17745-3 0  9997,2 53268  53.2167 331.1570 0000710  72.9887 287.1183 15.08844642 51186,6917.866,95.437,540.222,539.24,0.0
53268.0,STARLINK-4109,PAYLOAD,2023-06-21 13:50:42,15.08835668,9.06e-05,53.217,327.8871,56.1858,303.9221,0.00033828,5.099e-05,0.0,0 STARLINK-4109,1 53268U 22086AC  23172.57687524  .00005099  00000-0  33828-3 0  9991,2 53268  53.2170 327.8871 0000906  56.1858 303.9221 15.08835668 51295,6917.894,95.438,540.385,539.132,0.0
53268.0,STARLINK-4109,PAYLOAD,2023-06-21 17:01:28,15.08838374,9.33e-05,53.2168,327.2919,57.635,302.4733,0.00047182,7.229e-05,0.0,0 STARLINK-4109,1 53268U 22086AC  23172.70935549  .00007229  00000-0  47182-3 0  9994,2 53268  53.2168 327.2919 0000933  57.6350 302.4733 15.08838374 51134,6917.885,95.438,540.396,539.105,0.0
53268.0,STARLINK-4109,PAYLOAD,2023-06-22 10:30:43,15.08834287,0.0001018,53.2168,324.0214,56.1837,303.9252,0.00018141,2.6e-05,0.0,0 STARLINK-4109,1 53268U 22086AC  23173.43799972  .00002600  00000-0  18141-3 0  9994,2 53268  53.2168 324.0214 0001018  56.1837 303.9252 15.08834287 51249,6917.898,95.438,540.467,539.059,0.0
53268.0,STARLINK-4109,PAYLOAD,2023-06-22 20:03:01,15.08845509,8.13e-05,53.2169,322.2366,67.3816,292.7262,0.00033622,5.068e-05,0.0,0 STARLINK-4109,1 53268U 22086AC  23173.83543605  .00005068  00000-0  33622-3 0  9990,2 53268  53.2169 322.2366 0000813  67.3816 292.7262 15.08845509 51303,6917.864,95.437,540.291,539.166,0.0
53268.0,STARLINK-4109,PAYLOAD,2023-06-24 02:15:21,15.08845283,8.07e-05,53.2167,316.5869,71.1146,288.9933,0.0001997,2.892e-05,0.0,0 STARLINK-4109,1 53268U 22086AC  23175.09399580  .00002892  00000-0  19970-3 0  9993,2 53268  53.2167 316.5869 0000807  71.1146 288.9933 15.08845283 51498,6917.864,95.437,540.288,539.171,0.0
53268.0,STARLINK-4109,PAYLOAD,2023-06-24 08:36:54,15.08837504,6.65e-05,53.2167,315.4009,59.7236,300.3822,2.5458e-05,1.18e-06,0.0,0 STARLINK-4109,1 53268U 22086AC  23175.35895938  .00000118  00000-0  25458-4 0  9998,2 53268  53.2167 315.4009 0000665  59.7236 300.3822 15.08837504 51534,6917.888,95.438,540.213,539.293,0.0
53268.0,STARLINK-4109,PAYLOAD,2023-06-24 18:09:12,15.08844865,9.36e-05,53.2173,313.6149,84.784,275.3259,0.00013155,1.807e-05,0.0,0 STARLINK-4109,1 53268U 22086AC  23175.75639615  .00001807  00000-0  13155-3 0  9996,2 53268  53.2173 313.6149 0000936  84.7840 275.3259 15.08844865 51595,6917.866,95.437,540.378,539.083,0.0
53268.0,STARLINK-4109,PAYLOAD,2023-06-26 01:56:55,15.08841813,7.33e-05,53.2153,307.6692,91.2965,268.8111,0.00011968,1.618e-05,0.0,0 STARLINK-4109,1 53268U 22086AC  23177.08119781  .00001618  00000-0  11968-3 0  9991,2 53268  53.2153 307.6692 0000733  91.2965 268.8111 15.08841813 51791,6917.875,95.437,540.247,539.233,0.0
53268.0,STARLINK-4109,PAYLOAD,2023-06-26 16:15:24,15.08837264,7.89e-05,53.2166,304.9902,94.0541,266.0541,4.2407e-05,3.87e-06,0.0,0 STARLINK-4109,1 53268U 22086AC  23177.67736224  .00000387  00000-0  42407-4 0  9998,2 53268  53.2166 304.9902 0000789  94.0541 266.0541 15.08837264 51883,6917.889,95.438,540.3,539.208,0.0
53268.0,STARLINK-4109,PAYLOAD,2023-06-28 01:38:29,15.08850401,7.82e-05,53.2172,298.746,122.301,237.8057,4.7857e-05,4.74e-06,0.0,0 STARLINK-4109,1 53268U 22086AC  23179.06839477  .00000474  00000-0  47857-4 0  9998,2 53268  53.2172 298.7460 0000782 122.3010 237.8057 15.08850401 52098,6917.849,95.437,540.255,539.173,0.0
53268.0,STARLINK-4109,PAYLOAD,2023-06-28 08:00:02,15.08837921,8.46e-05,53.2162,297.5576,91.7199,268.389,8.2495e-05,1.025e-05,0.0,0 STARLINK-4109,1 53268U 22086AC  23179.33336420  .00001025  00000-0  82495-4 0  9998,2 53268  53.2162 297.5576 0000846  91.7199 268.3890 15.08837921 52131,6917.887,95.438,540.337,539.166,0.0
53268.0,STARLINK-4109,PAYLOAD,2023-06-29 11:01:36,15.08828599,7.74e-05,53.2194,292.498,133.2678,226.8379,8.4054e-05,1.05e-05,0.0,0 STARLINK-4109,1 53268U 22086AC  23180.45944890  .00001050  00000-0  84054-4 0  9990,2 53268  53.2194 292.4980 0000774 133.2678 226.8379 15.08828599 52304,6917.915,95.438,540.316,539.245,0.0
53268.0,STARLINK-4109,PAYLOAD,2023-06-29 17:23:08,15.08842682,8.98e-05,53.2183,291.3118,94.8596,265.2499,3.4307e-05,2.58e-06,0.0,0 STARLINK-4109,1 53268U 22086AC  23180.72440198  .00000258  00000-0  34307-4 0  9997,2 53268  53.2183 291.3118 0000898  94.8596 265.2499 15.08842682 52344,6917.872,95.437,540.358,539.116,0.0
53268.0,STARLINK-4109,PAYLOAD,2023-06-30 23:35:28,15.08827922,0.0001748,53.2174,285.6589,86.288,273.8312,-0.00017759,-3.112e-05,0.0,0 STARLINK-4109,1 53268U 22086AC  23181.98296906 -.00003112  00000-0 -17759-3 0  9997,2 53268  53.2174 285.6589 0001748  86.2880 273.8312 15.08827922 52538,6917.917,95.438,540.992,538.573,0.0
53268.0,STARLINK-4109,PAYLOAD,2023-07-01 15:29:19,15.08837217,7.86e-05,53.2172,282.6887,87.77,272.3382,-3.3344e-06,-3.41e-06,0.0,0 STARLINK-4109,1 53268U 22086AC  23182.64536527 -.00000341  00000-0 -33344-5 0  9998,2 53268  53.2172 282.6887 0000786  87.7700 272.3382 15.08837217 52632,6917.889,95.438,540.298,539.21,0.0
53268.0,STARLINK-4109,PAYLOAD,2023-07-02 13:44:43,15.08846713,7.21e-05,53.2166,278.5255,86.1871,273.9204,0.00023884,3.516e-05,0.0,0 STARLINK-4109,1 53268U 22086AC  23183.57272350  .00003516  00000-0  23884-3 0  9993,2 53268  53.2166 278.5255 0000721  86.1871 273.9204 15.08846713 52775,6917.86,95.437,540.224,539.226,0.0
53268.0,STARLINK-4109,PAYLOAD,2023-07-03 12:00:07,15.08845561,7.56e-05,53.2165,274.3631,87.6367,272.4712,0.00022049,3.224e-05,0.0,0 STARLINK-4109,1 53268U 22086AC  23184.50008451  .00003224  00000-0  22049-3 0  9994,2 53268  53.2165 274.3631 0000756  87.6367 272.4712 15.08845561 52914,6917.863,95.437,540.251,539.205,0.0
53268.0,STARLINK-4109,PAYLOAD,2023-07-04 11:50:54,15.08838754,8.92e-05,53.2164,269.9033,85.1212,274.9882,3.1352e-05,2.11e-06,0.0,0 STARLINK-4109,1 53268U 22086AC  23185.49368725  .00000211  00000-0  31352-4 0  9997,2 53268  53.2164 269.9033 0000892  85.1212 274.9882 15.08838754 53060,6917.884,95.438,540.366,539.132,0.0
53268.0,STARLINK-4109,PAYLOAD,2023-07-05 14:52:27,15.0884162,7.9e-05,53.2159,264.8472,88.9261,271.1821,6.3637e-05,7.25e-06,0.0,0 STARLINK-4109,1 53268U 22086AC  23186.61976841  .00000725  00000-0  63637-4 0  9997,2 53268  53.2159 264.8472 0000790  88.9261 271.1821 15.08841620 53234,6917.875,95.437,540.287,539.194,0.0
53268.0,STARLINK-4109,PAYLOAD,2023-07-07 09:47:52,15.08841509,7.89e-05,53.2168,256.8182,76.0364,284.0716,0.00012123,1.642e-05,0.0,0 STARLINK-4109,1 53268U 22086AC  23188.40824900  .00001642  00000-0  12123-3 0  9996,2 53268  53.2168 256.8182 0000789  76.0364 284.0716 15.08841509 53505,6917.876,95.437,540.287,539.195,0.0
53268.0,STARLINK-4109,PAYLOAD,2023-07-07 16:09:24,15.08850065,7.95e-05,53.2169,255.6286,75.5161,284.5919,0.00016885,2.401e-05,0.0,0 STARLINK-4109,1 53268U 22086AC  23188.67320191  .00002401  00000-0  16885-3 0  9991,2 53268  53.2169 255.6286 0000795  75.5161 284.5919 15.08850065 53545,6917.85,95.437,540.265,539.165,0.0
